{
    "CCSDS_OMM_VERS": "3.0",
    "COMMENT": "GENERATED VIA SPACE-TRACK.ORG API",
    "CREATION_DATE": "2025-05-23T14:26:18",
    "ORIGINATOR": "18 SPCS",
    "OBJECT_NAME": "GALILEO-FM3",
    "OBJECT_ID": "2012-055A",
    "CENTER_NAME": "EARTH",
    "REF_FRAME": "TEME",
    "TIME_SYSTEM": "UTC",
    "MEAN_ELEMENT_THEORY": "SGP4",
    "EPOCH": "2025-05-23T09:29:35.731680",
    "MEAN_MOTION": "1.70473424",
    "ECCENTRICITY": "0.00057220",
    "INCLINATION": "55.5774",
    "RA_OF_ASC_NODE": "112.2525",
    "ARG_OF_PERICENTER": "289.7034",
    "MEAN_ANOMALY": "70.2031",
    "EPHEMERIS_TYPE": "0",
    "CLASSIFICATION_TYPE": "U",
    "NORAD_CAT_ID": "38857",
    "ELEMENT_SET_NO": "999",
    "REV_AT_EPOCH": "7850",
    "BSTAR": "0.00000000000000",
    "MEAN_MOTION_DOT": "0.00000053",
    "MEAN_MOTION_DDOT": "0.0000000000000",
    "SEMIMAJOR_AXIS": "29600.387",
    "PERIOD": "844.706",
    "APOAPSIS": "23239.189",
    "PERIAPSIS": "23205.314",
    "OBJECT_TYPE": "PAYLOAD",
    "RCS_SIZE": "LARGE",
    "COUNTRY_CODE": "ESA",
    "LAUNCH_DATE": "2012-10-12",
    "SITE": "FRGUI",
    "DECAY_DATE": null,
    "FILE": "4736860",
    "GP_ID": "288173375",
    "TLE_LINE0": "0 GALILEO-FM3",
    "TLE_LINE1": "1 38857U 12055A   25143.39555245  .00000053  00000-0  00000+0 0  9994",
    "TLE_LINE2": "2 38857  55.5774 112.2525 0005722 289.7034  70.2031  1.70473424 78508"
}